H1 CPF  1  HTS 2022  4 24 12  6141 larets           NONE
H2  0304206 5557    27944 2022 04 24  0  0  0 2022 04 29  0  0  0   180 1 1  0 0 0
H5  0.0560 
H9 
10 0 59694  83880.00000  0   -1927376.000    -404852.114   -6798101.011
10 0 59694  84060.00000  0    -946078.454     514779.910   -6995451.765
10 0 59694  84240.00000  0      92796.372    1389384.863   -6939401.364
10 0 59694  84420.00000  0    1150279.018    2186500.469   -6631933.554
10 0 59694  84600.00000  0    2185887.003    2877435.127   -6084001.207
10 0 59694  84780.00000  0    3159135.212    3438286.188   -5315185.455
10 0 59694  84960.00000  0    4031091.202    3850771.910   -4353070.497
10 0 59694  85140.00000  0    4765931.258    4102853.943   -3232339.863
10 0 59694  85320.00000  0    5332437.511    4189118.756   -1993595.856
10 0 59694  85500.00000  0    5705362.072    4110893.227    -681929.084
10 0 59694  85680.00000  0    5866589.213    3876081.209     654717.261
10 0 59694  85860.00000  0    5806029.921    3498720.898    1967326.049
10 0 59694  86040.00000  0    5522193.109    2998276.360    3207654.629
10 0 59694  86220.00000  0    5022392.932    2398699.285    4330067.965
10 0 59695      0.00000  0    4322576.781    1727307.131    5293267.024
10 0 59695    180.00000  0    3446791.922    1013542.264    6061835.192
10 0 59695    360.00000  0    2426311.037     287673.108    6607547.154
10 0 59695    540.00000  0    1298468.952    -420497.118    6910384.866
10 0 59695    720.00000  0     105263.914   -1082859.000    6959253.862
10 0 59695    900.00000  0   -1108234.324   -1674121.166    6752374.381
10 0 59695   1080.00000  0   -2295605.141   -2172785.492    6297337.219
10 0 59695   1260.00000  0   -3410863.766   -2561936.959    5610833.735
10 0 59695   1440.00000  0   -4410268.386   -2829830.362    4718072.209
10 0 59695   1620.00000  0   -5254079.223   -2970250.838    3651866.980
10 0 59695   1800.00000  0   -5908183.300   -2982626.359    2451433.683
10 0 59695   1980.00000  0   -6345519.603   -2871892.443    1160933.850
10 0 59695   2160.00000  0   -6547233.571   -2648114.716    -172189.702
10 0 59695   2340.00000  0   -6503493.208   -2325881.776   -1499012.518
10 0 59695   2520.00000  0   -6213924.350   -1923504.356   -2770981.625
10 0 59695   2700.00000  0   -5687642.996   -1462066.962   -3941730.200
10 0 59695   2880.00000  0   -4942899.747    -964386.683   -4968773.946
10 0 59695   3060.00000  0   -4006365.144    -453933.540   -5815024.777
10 0 59695   3240.00000  0   -2912099.163      46234.174   -6450069.187
10 0 59695   3420.00000  0   -1700264.619     514469.780   -6851177.208
10 0 59695   3600.00000  0    -415643.758     931432.452   -7004032.430
10 0 59695   3780.00000  0     893987.748    1280850.337   -6903179.675
10 0 59695   3960.00000  0    2179583.014    1550131.215   -6552199.246
10 0 59695   4140.00000  0    3392609.724    1730807.120   -5963602.286
10 0 59695   4320.00000  0    4486843.417    1818797.966   -5158436.449
10 0 59695   4500.00000  0    5420116.112    1814486.382   -4165612.596
10 0 59695   4680.00000  0    6155967.404    1722600.784   -3020949.459
10 0 59695   4860.00000  0    6665125.990    1551905.081   -1765949.734
10 0 59695   5040.00000  0    6926754.569    1314705.106    -446332.516
10 0 59695   5220.00000  0    6929381.010    1026187.503     889635.228
10 0 59695   5400.00000  0    6671455.296     703622.946    2192936.507
10 0 59695   5580.00000  0    6161500.425     365471.607    3415656.577
10 0 59695   5760.00000  0    5417832.742      30436.744    4512803.950
10 0 59695   5940.00000  0    4467869.414    -283478.776    5444010.225
10 0 59695   6120.00000  0    3347062.976    -559865.862    6175040.107
10 0 59695   6300.00000  0    2097515.390    -784706.202    6679048.634
10 0 59695   6480.00000  0     766346.111    -947036.247    6937551.044
10 0 59695   6660.00000  0    -596125.171   -1039453.194    6941081.532
10 0 59695   6840.00000  0   -1938307.431   -1058441.435    6689520.864
10 0 59695   7020.00000  0   -3209306.919   -1004507.174    6192095.477
10 0 59695   7200.00000  0   -4360875.203    -882115.987    5467055.475
10 0 59695   7380.00000  0   -5349279.801    -699439.846    4541030.236
10 0 59695   7560.00000  0   -6137018.468    -467921.597    3448063.860
10 0 59695   7740.00000  0   -6694297.978    -201673.760    2228362.173
10 0 59695   7920.00000  0   -7000216.642      83260.989     926795.686
10 0 59695   8100.00000  0   -7043587.796     369750.027    -408795.353
10 0 59695   8280.00000  0   -6823352.903     640467.507   -1729417.387
10 0 59695   8460.00000  0   -6348565.505     878799.902   -2986772.261
10 0 59695   8640.00000  0   -5637961.132    1069712.414   -4135057.537
10 0 59695   8820.00000  0   -4719131.903    1200532.305   -5132640.983
10 0 59695   9000.00000  0   -3627367.154    1261609.184   -5943532.754
10 0 59695   9180.00000  0   -2404232.670    1246824.166   -6538614.290
10 0 59695   9360.00000  0   -1095958.413    1153930.074   -6896599.875
10 0 59695   9540.00000  0     248300.971     984716.139   -7004716.132
10 0 59695   9720.00000  0    1578267.461     744992.279   -6859101.321
10 0 59695   9900.00000  0    2844363.632     444394.656   -6464933.356
10 0 59695  10080.00000  0    3999513.155      96016.179   -5836270.188
10 0 59695  10260.00000  0    5000861.345    -284128.252   -4995606.081
10 0 59695  10440.00000  0    5811370.559    -677786.960   -3973149.815
10 0 59695  10620.00000  0    6401236.332   -1065286.203   -2805820.623
10 0 59695  10800.00000  0    6749057.786   -1426445.059   -1535978.184
10 0 59695  10980.00000  0    6842703.078   -1741550.300    -209915.726
10 0 59695  11160.00000  0    6679813.749   -1992342.883    1123833.755
10 0 59695  11340.00000  0    6267910.359   -2162965.466    2416312.259
10 0 59695  11520.00000  0    5624081.079   -2240818.334    3619991.455
10 0 59695  11700.00000  0    4774263.253   -2217274.158    4690578.071
10 0 59695  11880.00000  0    3752160.217   -2088213.287    5588682.911
10 0 59695  12060.00000  0    2597853.628   -1854353.913    6281291.897
10 0 59695  12240.00000  0    1356174.425   -1521361.233    6742976.789
10 0 59695  12420.00000  0      74916.193   -1099732.527    6956810.213
10 0 59695  12600.00000  0   -1197037.047    -604461.545    6914963.594
10 0 59695  12780.00000  0   -2411593.914     -54496.002    6618977.844
10 0 59695  12960.00000  0   -3523288.115     527993.821    6079708.644
10 0 59695  13140.00000  0   -4491004.090    1118510.974    5316946.388
10 0 59695  13320.00000  0   -5279537.375    1691259.897    4358711.608
10 0 59695  13500.00000  0   -5860925.304    2220269.271    3240237.998
10 0 59695  13680.00000  0   -6215486.839    2680559.608    2002672.932
10 0 59695  13860.00000  0   -6332527.064    3049301.302     691540.842
10 0 59695  14040.00000  0   -6210667.005    3306904.939    -644978.450
10 0 59695  14220.00000  0   -5857776.011    3437983.145   -1957876.976
10 0 59695  14400.00000  0   -5290516.274    3432134.651   -3199168.516
10 0 59695  14580.00000  0   -4533522.972    3284510.263   -4323675.112
10 0 59695  14760.00000  0   -3618276.236    2996135.565   -5290665.707
10 0 59695  14940.00000  0   -2581737.441    2573983.586   -6065285.341
10 0 59695  15120.00000  0   -1464825.613    2030805.131   -6619738.344
10 0 59695  15300.00000  0    -310796.567    1384727.702   -6934202.328
10 0 59695  15480.00000  0     836405.642     658644.423   -6997458.316
10 0 59695  15660.00000  0    1933774.587    -120583.166   -6807245.119
10 0 59695  15840.00000  0    2940807.378    -923090.870   -6370332.267
10 0 59695  16020.00000  0    3820962.392   -1717118.734   -5702308.873
10 0 59695  16200.00000  0    4542972.504   -2470229.421   -4827093.553
10 0 59695  16380.00000  0    5081976.574   -3150609.336   -3776162.019
10 0 59695  16560.00000  0    5420420.856   -3728402.186   -2587494.166
10 0 59695  16740.00000  0    5548692.517   -4177018.884   -1304260.073
10 0 59695  16920.00000  0    5465444.097   -4474362.792      26723.963
10 0 59695  17100.00000  0    5177581.405   -4603906.829    1356716.201
10 0 59695  17280.00000  0    4699901.505   -4555557.717    2636879.167
10 0 59695  17460.00000  0    4054393.777   -4326251.607    3820130.571
10 0 59695  17640.00000  0    3269242.325   -3920251.263    4862928.549
10 0 59695  17820.00000  0    2377578.235   -3349127.264    5726913.259
10 0 59695  18000.00000  0    1416051.090   -2631423.609    6380333.665
10 0 59695  18180.00000  0     423289.152   -1792027.926    6799207.661
10 0 59695  18360.00000  0    -561678.729    -861278.906    6968180.462
10 0 59695  18540.00000  0   -1500973.029     126154.521    6881066.487
10 0 59695  18720.00000  0   -2359331.451    1132582.106    6541065.292
10 0 59695  18900.00000  0   -3105446.029    2118743.741    5960647.791
10 0 59695  19080.00000  0   -3713124.290    3045354.601    5161116.170
10 0 59695  19260.00000  0   -4162236.423    3874691.825    4171843.927
10 0 59695  19440.00000  0   -4439410.305    4572159.352    3029209.017
10 0 59695  19620.00000  0   -4538441.384    5107764.170    1775249.686
10 0 59695  19800.00000  0   -4460393.134    5457429.074     456086.998
10 0 59695  19980.00000  0   -4213387.627    5604073.085    -879818.043
10 0 59695  20160.00000  0   -3812094.754    5538407.203   -2183503.888
10 0 59695  20340.00000  0   -3276941.450    5259393.766   -3407356.321
10 0 59695  20520.00000  0   -2633093.695    4774355.840   -4506871.271
10 0 59695  20700.00000  0   -1909274.382    4098739.388   -5442257.543
10 0 59695  20880.00000  0   -1136484.031    3255561.423   -6179823.043
10 0 59695  21060.00000  0    -346684.386    2274575.762   -6693116.549
10 0 59695  21240.00000  0     428501.281    1191193.388   -6963793.324
10 0 59695  21420.00000  0    1159018.914      45208.746   -6982198.748
10 0 59695  21600.00000  0    1817512.816   -1120630.700   -6747671.590
10 0 59695  21780.00000  0    2380318.598   -2262171.908   -6268562.076
99
